IRIDIUM 57              
1 25273U 98019B   24198.77631223  .00000602  00000+0  20339-3 0  9998
2 25273  86.3956 285.7275 0002229  94.4690 265.6761 14.35283773376665
IRIDIUM 63              
1 25286U 98021B   24198.57956111  .00000490  00000+0  16244-3 0  9994
2 25286  86.3978 222.7108 0002101  90.9836 269.1602 14.35831646375672
IRIDIUM 69              
1 25319U 98026A   24198.63103312  .00000742  00000+0  22922-3 0  9990
2 25319  86.3963 236.9855 0004317  71.2108 288.9559 14.40081085374752
IRIDIUM 71              
1 25320U 98026B   24198.62472700  .00000655  00000+0  20009-3 0  9998
2 25320  86.3963 231.7436 0004368 102.5330 257.6358 14.40388549375276
IRIDIUM 73              
1 25344U 98032C   24198.89413104  .00001083  00000+0  27098-3 0  9994
2 25344  86.4444 189.0361 0002872  81.9096 278.2435 14.50630787381936
IRIDIUM 82              
1 25467U 98051A   24198.68301131  .00024231  00000+0  11752-2 0  9993
2 25467  86.3741 271.7663 0126998 112.2430 249.2336 15.11436305372948
